STARLINK-30547          
1 58044U 23156S   25181.58335648  .00023294  00000+0  13500-2 0  9997
2 58044  53.1583 256.3847 0001527  80.9153 277.2515 15.12106491  5840
STARLINK-30550          
1 58045U 23156T   25181.88791999  .00000741  00000+0  37126-4 0  9990
2 58045  53.1604  90.9473 0001294  79.8521 280.2625 15.30200480 98817
STARLINK-30548          
1 58046U 23156U   25181.47193708  .00000566  00000+0  49533-4 0  9990
2 58046  53.1599 257.1421 0001095  85.2670 274.8447 15.12130444 96402
STARLINK-30529          
1 58047U 23156V   25181.53318382  .00001517  00000+0  10411-3 0  9994
2 58047  53.1602 256.8069 0001509  85.6976 274.4189 15.12128446 96414
STARLINK-30554          
1 58048U 23156W   25181.52643604  .00000148  00000+0  25588-4 0  9993
2 58048  53.1604 256.7765 0001393  89.3364 270.7789 15.12119356 96417
STARLINK-30568          
1 58051U 23158A   25181.77623900  .00000004  00000+0  15345-4 0  9994
2 58051  43.0041 319.4523 0001371 267.4276  92.6409 15.02537800 95461
STARLINK-30575          
1 58052U 23158B   25181.78287562  .00002928  00000+0  23161-3 0  9997
2 58052  43.0020 319.4972 0001285 260.5543  99.5154 15.02561414 95632
STARLINK-30577          
1 58053U 23158C   25181.44052174  .00000067  00000+0  20043-4 0  9999
2 58053  43.0074 321.2175 0001686 276.7631  83.3020 15.02533371 95577
STARLINK-30566          
1 58054U 23158D   25181.43386284 -.00096410  00000+0 -72301-2 0  9992
2 58054  43.0008 321.1888 0003007 300.8947  59.1599 15.02480174 95588
STARLINK-30544          
1 58055U 23158E   25181.48368728  .00000729  00000+0  69000-4 0  9991
2 58055  43.0040 320.6964 0001095 272.0871  87.9846 15.02536565 95596
STARLINK-30553          
1 58056U 23158F   25181.42720470  .00000393  00000+0  44197-4 0  9999
2 58056  43.0038 321.1328 0001387 276.0428  84.0257 15.02533962 95581
STARLINK-30541          
1 58057U 23158G   25181.43053195  .00000347  00000+0  40775-4 0  9991
2 58057  43.0037 321.1583 0001269 267.2401  92.8296 15.02534822 95582
STARLINK-30573          
1 58058U 23158H   25181.42387229  .00001080  00000+0  95049-4 0  9998
2 58058  43.0048 321.1089 0001339 267.4666  92.6023 15.02526087 95589
STARLINK-30582          
1 58059U 23158J   25180.74910754 -.00000172  00000+0  23080-5 0  9997
2 58059  43.0047 324.6456 0001361 261.9656  98.1032 15.02532370 95480
STARLINK-30558          
1 58060U 23158K   25181.78624095  .00000946  00000+0  85079-4 0  9997
2 58060  43.0043 319.5123 0001793 279.6116  80.4524 15.02535832 95631
STARLINK-30579          
1 58061U 23158L   25180.74638568 -.00000058  00000+0  10753-4 0  9995
2 58061  43.0045 299.3147 0001547 266.4356  93.6309 15.02533818 95776
STARLINK-30588          
1 58062U 23158M   25181.67313506 -.00000317  00000+0 -84027-5 0  9996
2 58062  43.0039 319.5373 0001280 269.3184  90.7512 15.02534676 95611
STARLINK-30585          
1 58063U 23158N   25181.66314413  .00000088  00000+0  21566-4 0  9995
2 58063  43.0011 319.4625 0001507 253.6801 106.3876 15.02535459 95612
STARLINK-30587          
1 58064U 23158P   25181.67646062  .00001146  00000+0  99877-4 0  9991
2 58064  43.0028 319.5639 0001226 269.5833  90.4869 15.02539254 95517
STARLINK-30576          
1 58065U 23158Q   25181.37071520  .00000196  00000+0  29622-4 0  9995
2 58065  43.0039 321.5734 0001422 265.8793  94.1886 15.02534535 95574
STARLINK-30571          
1 58066U 23158R   25181.39057677 -.00000334  00000+0 -96399-5 0  9997
2 58066  43.0037 320.8566 0001411 262.4371  97.6311 15.02533389 95589
STARLINK-30567          
1 58067U 23158S   25181.45161775  .00000232  00000+0  32254-4 0  9994
2 58067  43.0037 321.2986 0001784 274.0011  86.0627 15.02533753 95581
STARLINK-30569          
1 58068U 23158T   25181.66980401  .00000286  00000+0  36242-4 0  9993
2 58068  43.0037 319.5112 0001639 269.9955  90.0699 15.02537304 95627
STARLINK-30480          
1 58069U 23158U   25181.18343943 -.00000207  00000+0  20055-5 0  9995
2 58069  43.0019 230.8478 0001476 273.0251  87.0432 15.27584311 96621
STARLINK-30532          
1 58070U 23158V   25180.66931245 -.00000497  00000+0 -21745-4 0  9995
2 58070  43.0036 324.9033 0001275 263.7681  96.3016 15.02528490 95476
STARLINK-30513          
1 58071U 23158W   25181.17984036 -.00000564  00000+0 -10952-4 0  9992
2 58071  43.0015  97.1913 0001597 261.4860  98.5811 15.27577959 98168
STARLINK-30506          
1 58072U 23158X   25181.65981682  .00000690  00000+0  66145-4 0  9993
2 58072  43.0043 319.4367 0001329 270.2956  89.7734 15.02533935 95465
STARLINK-30604          
1 58075U 23160A   25181.86676213 -.00000388  00000+0 -13648-4 0  9999
2 58075  43.0060   8.9033 0001938 239.1661 120.8991 15.02538030 95003
STARLINK-30500          
1 58076U 23160B   25181.87663615  .00000354  00000+0  41251-4 0  9995
2 58076  43.0044   8.1098 0001140 259.0120 101.0594 15.02537414 95000
STARLINK-30613          
1 58077U 23160C   25181.52774102 -.00001789  00000+0 -11746-3 0  9992
2 58077  43.0042  10.6568 0000954 255.7389 104.3348 15.02519076 94995
STARLINK-30597          
1 58078U 23160D   25181.53770107  .00000535  00000+0  54640-4 0  9992
2 58078  43.0045  10.7163 0001226 260.5723  99.4981 15.02535613 94981
STARLINK-30598          
1 58079U 23160E   25181.79028854  .00000807  00000+0  74721-4 0  9990
2 58079  43.0007   9.1832 0000744 229.2734 130.8043 15.02556063 94995
STARLINK-30603          
1 58080U 23160F   25181.85344243  .00000594  00000+0  59035-4 0  9996
2 58080  43.0054   8.7995 0001145 263.0389  97.0324 15.02541473 95000
STARLINK-30602          
1 58081U 23160G   25181.55423436  .00000167  00000+0  27467-4 0  9996
2 58081  43.0051   9.9815 0001280 261.5199  98.5498 15.02534169 94993
STARLINK-30610          
1 58082U 23160H   25181.51772590  .00000296  00000+0  36971-4 0  9994
2 58082  43.0063  10.5836 0001134 265.9804  94.0908 15.02535912 94980
STARLINK-30551          
1 58083U 23160J   25181.51439870  .00000357  00000+0  41515-4 0  9994
2 58083  43.0031  10.5557 0001169 272.1551  87.9158 15.02534660 94980
STARLINK-30586          
1 58084U 23160K   25181.57754519  .00000256  00000+0  33999-4 0  9996
2 58084  43.0039  10.1686 0001013 254.3939 105.6792 15.02537256 95019
STARLINK-30609          
1 58085U 23160L   25181.57421511  .00000043  00000+0  18275-4 0  9994
2 58085  43.0051  10.1439 0001335 264.5376  95.5314 15.02535048 94995
STARLINK-30583          
1 58086U 23160M   25181.57088601 -.00000079  00000+0  92359-5 0  9990
2 58086  43.0064  10.1201 0001340 261.0862  98.9829 15.02535628 95011
STARLINK-30557          
1 58087U 23160N   25181.56979432 -.00002339  00000+0 -15813-3 0  9991
2 58087  43.0029  10.1013 0001214 264.3749  95.6955 15.02533931 95013
STARLINK-30591          
1 58088U 23160P   25181.49774633  .00000246  00000+0  33298-4 0  9991
2 58088  43.0044  10.4290 0001475 259.0333 101.0344 15.02536209 94980
STARLINK-30584          
1 58089U 23160Q   25181.82680386  .00001755  00000+0  14493-3 0  9991
2 58089  43.0053   8.5973 0001739 248.5777 111.4880 15.02552170 95004
STARLINK-30590          
1 58090U 23160R   25180.96925622  .00000288  00000+0  36375-4 0  9996
2 58090  43.0045  13.3444 0001240 261.4347  98.6355 15.02535430 94909
STARLINK-30608          
1 58091U 23160S   25181.55756472  .00000417  00000+0  45936-4 0  9995
2 58091  43.0050  10.0188 0001365 263.2035  96.8652 15.02536333 94999
STARLINK-30615          
1 58092U 23160T   25181.55312686  .00000254  00000+0  33907-4 0  9995
2 58092  43.0053   9.9778 0001310 264.8227  95.2466 15.02534763 94996
STARLINK-30578          
1 58093U 23160U   25181.53104627 -.00000325  00000+0 -90166-5 0  9990
2 58093  43.0040  10.6672 0001265 261.3914  98.6785 15.02535665 94981
STARLINK-30574          
1 58094U 23160V   25180.88612964  .00000604  00000+0  59752-4 0  9999
2 58094  43.0046  13.5772 0001222 267.5065  92.5637 15.02535702 94890
STARLINK-30570          
1 58095U 23160W   25181.81348719  .00000397  00000+0  44476-4 0  9994
2 58095  43.0075   8.4978 0001264 265.8264  94.2434 15.02536250 95009
STARLINK-30581          
1 58096U 23160X   25181.54103011  .00000502  00000+0  52247-4 0  9992
2 58096  43.0057  10.7396 0001291 264.8926  95.1769 15.02537128 94986
STARLINK-30594          
1 58097U 23161A   25181.51956364 -.00000385  00000+0 -88059-6 0  9991
2 58097  53.1593 256.8122 0000956 100.0709 260.0400 15.30197073 95811
STARLINK-30614          
1 58098U 23161B   25181.51640005 -.00000141  00000+0  73788-5 0  9995
2 58098  53.1593 256.7922 0001042  97.7033 262.4086 15.30190687 95818
STARLINK-30607          
1 58099U 23161C   25181.51964219  .00000630  00000+0  33387-4 0  9994
2 58099  53.1594 246.8152 0001256  83.3242 276.7901 15.30193701 95550
STARLINK-30600          
1 58100U 23161D   25181.52589674 -.00000751  00000+0 -13228-4 0  9994
2 58100  53.1596 256.8404 0001145  97.8883 262.2248 15.30191484 95813
STARLINK-30605          
1 58101U 23161E   25181.51218354 -.00002202  00000+0 -62285-4 0  9998
2 58101  53.1593 256.7658 0000952 103.4755 256.6352 15.30188262 95811
STARLINK-30592          
1 58102U 23161F   25181.50901276 -.00000330  00000+0  99238-6 0  9999
2 58102  53.1592 256.7450 0000905  93.6953 266.4152 15.30193870 95817
STARLINK-30589          
1 58103U 23161G   25181.54907939 -.00000207  00000+0  51344-5 0  9994
2 58103  53.1605 256.7943 0001173  85.1894 274.9241 15.30197593 95682
STARLINK-30617          
1 58104U 23161H   25181.55225510 -.00001140  00000+0 -26385-4 0  9998
2 58104  53.1603 256.8163 0000909  86.2152 273.8953 15.30183170 95810
STARLINK-30616          
1 58105U 23161J   25181.44311663  .00000181  00000+0  18219-4 0  9991
2 58105  53.1588 244.0958 0001030  84.7618 275.3501 15.30192797 95978
STARLINK-30612          
1 58106U 23161K   25181.64644904  .00000630  00000+0  33398-4 0  9995
2 58106  53.1601 243.2452 0001227  74.4411 285.6725 15.30194905 95739
